ATLAS CENTAUR R/B       
1 06155U 72065B   26003.28460509  .00002579  00000+0  35560-3 0  9996
2 06155  35.0031 328.9896 0033931 181.3067 178.7548 14.77480324831586
SL-8 R/B                
1 08459U 75112B   26003.46425679  .00000559  00000+0  19265-3 0  9990
2 08459  74.0608 138.8988 0016746 248.2829 111.6542 14.38163232622493
SL-3 R/B                
1 10114U 77057B   26003.47803032  .00020225  00000+0  45127-3 0  9993
2 10114  97.5687 172.6631 0007906 150.3072 209.8625 15.43564520658261
SEASAT 1                
1 10967U 78064A   26003.47283139  .00000853  00000+0  27708-3 0  9998
2 10967 108.0141 348.6330 0001231 262.0743  98.0262 14.46091260497086
SL-14 R/B               
1 11267U 79011B   26003.45341040  .00001306  00000+0  12685-3 0  9991
2 11267  82.5246 158.4507 0014697 276.3059  83.6487 14.91805793519058
SL-8 R/B                
1 11574U 79089B   26003.26921563  .00000416  00000+0  13391-3 0  9996
2 11574  74.0673 212.1323 0014981  37.9088 322.3120 14.42298552426679
SL-14 R/B               
1 11672U 80005B   26003.49076022  .00001202  00000+0  11930-3 0  9992
2 11672  82.5138   9.0676 0016448  26.2519 333.9529 14.90825094466778
SL-8 R/B                
1 12139U 81003B   26003.44450802  .00034982  00000+0  92340-3 0  9992
2 12139  82.9364 350.2302 0275331  45.8339 316.5163 15.07903508304839
SL-3 R/B                
1 12465U 81046B   26003.46347970  .00017976  00000+0  44470-3 0  9999
2 12465  81.2315   7.9384 0017985 243.7295 116.2099 15.40153285428380
SL-3 R/B                
1 12904U 81103B   26003.44451061  .00010790  00000+0  49062-3 0  9995
2 12904  81.1610 289.9305 0013570 139.5804 220.6437 15.20547134963315
SL-3 R/B                
1 13068U 82013B   26003.41616184  .00007032  00000+0  31078-3 0  9997
2 13068  81.1733 237.2346 0023704  41.3755 318.9266 15.21310377394428
SL-3 R/B                
1 13154U 82039B   26003.44661618  .00005663  00000+0  34664-3 0  9998
2 13154  81.1705 291.1210 0029605 178.6446 181.4865 15.09682155371794
