CCSDS_OMM_VERS = 2.0
CREATION_DATE  = 
ORIGINATOR     = 

OBJECT_NAME    = ATLAS CENTAUR R/B
OBJECT_ID      = 1972-065B
CENTER_NAME    = EARTH
REF_FRAME      = TEME
TIME_SYSTEM    = UTC
MEAN_ELEMENT_THEORY = SGP/SGP4

EPOCH          = 2026-01-03T06:49:49.879776
MEAN_MOTION    = 14.77480324
ECCENTRICITY   = .0033931
INCLINATION    = 35.0031
RA_OF_ASC_NODE = 328.9896
ARG_OF_PERICENTER = 181.3067
MEAN_ANOMALY   = 178.7548

EPHEMERIS_TYPE = 0
CLASSIFICATION_TYPE = U
NORAD_CAT_ID   = 6155
ELEMENT_SET_NO = 999
REV_AT_EPOCH   = 83158
BSTAR          = .3556E-3
MEAN_MOTION_DOT = .2579E-4
MEAN_MOTION_DDOT = 0

CCSDS_OMM_VERS = 2.0
CREATION_DATE  = 
ORIGINATOR     = 

OBJECT_NAME    = SL-8 R/B
OBJECT_ID      = 1975-112B
CENTER_NAME    = EARTH
REF_FRAME      = TEME
TIME_SYSTEM    = UTC
MEAN_ELEMENT_THEORY = SGP/SGP4

EPOCH          = 2026-01-03T11:08:31.786656
MEAN_MOTION    = 14.38163232
ECCENTRICITY   = .0016746
INCLINATION    = 74.0608
RA_OF_ASC_NODE = 138.8988
ARG_OF_PERICENTER = 248.2829
MEAN_ANOMALY   = 111.6542

EPHEMERIS_TYPE = 0
CLASSIFICATION_TYPE = U
NORAD_CAT_ID   = 8459
ELEMENT_SET_NO = 999
REV_AT_EPOCH   = 62249
BSTAR          = .19265E-3
MEAN_MOTION_DOT = .559E-5
MEAN_MOTION_DDOT = 0

CCSDS_OMM_VERS = 2.0
CREATION_DATE  = 
ORIGINATOR     = 

OBJECT_NAME    = SL-3 R/B
OBJECT_ID      = 1977-057B
CENTER_NAME    = EARTH
REF_FRAME      = TEME
TIME_SYSTEM    = UTC
MEAN_ELEMENT_THEORY = SGP/SGP4

EPOCH          = 2026-01-03T11:28:21.819648
MEAN_MOTION    = 15.43564520
ECCENTRICITY   = .0007906
INCLINATION    = 97.5687
RA_OF_ASC_NODE = 172.6631
ARG_OF_PERICENTER = 150.3072
MEAN_ANOMALY   = 209.8625

EPHEMERIS_TYPE = 0
CLASSIFICATION_TYPE = U
NORAD_CAT_ID   = 10114
ELEMENT_SET_NO = 999
REV_AT_EPOCH   = 65826
BSTAR          = .45127E-3
MEAN_MOTION_DOT = .20225E-3
MEAN_MOTION_DDOT = 0

CCSDS_OMM_VERS = 2.0
CREATION_DATE  = 
ORIGINATOR     = 

OBJECT_NAME    = SEASAT 1
OBJECT_ID      = 1978-064A
CENTER_NAME    = EARTH
REF_FRAME      = TEME
TIME_SYSTEM    = UTC
MEAN_ELEMENT_THEORY = SGP/SGP4

EPOCH          = 2026-01-03T11:20:52.632096
MEAN_MOTION    = 14.46091260
ECCENTRICITY   = .0001231
INCLINATION    = 108.0141
RA_OF_ASC_NODE = 348.6330
ARG_OF_PERICENTER = 262.0743
MEAN_ANOMALY   = 98.0262

EPHEMERIS_TYPE = 0
CLASSIFICATION_TYPE = U
NORAD_CAT_ID   = 10967
ELEMENT_SET_NO = 999
REV_AT_EPOCH   = 49708
BSTAR          = .27708E-3
MEAN_MOTION_DOT = .853E-5
MEAN_MOTION_DDOT = 0

CCSDS_OMM_VERS = 2.0
CREATION_DATE  = 
ORIGINATOR     = 

OBJECT_NAME    = SL-14 R/B
OBJECT_ID      = 1979-011B
CENTER_NAME    = EARTH
REF_FRAME      = TEME
TIME_SYSTEM    = UTC
MEAN_ELEMENT_THEORY = SGP/SGP4

EPOCH          = 2026-01-03T10:52:54.658560
MEAN_MOTION    = 14.91805793
ECCENTRICITY   = .0014697
INCLINATION    = 82.5246
RA_OF_ASC_NODE = 158.4507
ARG_OF_PERICENTER = 276.3059
MEAN_ANOMALY   = 83.6487

EPHEMERIS_TYPE = 0
CLASSIFICATION_TYPE = U
NORAD_CAT_ID   = 11267
ELEMENT_SET_NO = 999
REV_AT_EPOCH   = 51905
BSTAR          = .12685E-3
MEAN_MOTION_DOT = .1306E-4
MEAN_MOTION_DDOT = 0

CCSDS_OMM_VERS = 2.0
CREATION_DATE  = 
ORIGINATOR     = 

OBJECT_NAME    = SL-8 R/B
OBJECT_ID      = 1979-089B
CENTER_NAME    = EARTH
REF_FRAME      = TEME
TIME_SYSTEM    = UTC
MEAN_ELEMENT_THEORY = SGP/SGP4

EPOCH          = 2026-01-03T06:27:40.230432
MEAN_MOTION    = 14.42298552
ECCENTRICITY   = .0014981
INCLINATION    = 74.0673
RA_OF_ASC_NODE = 212.1323
ARG_OF_PERICENTER = 37.9088
MEAN_ANOMALY   = 322.3120

EPHEMERIS_TYPE = 0
CLASSIFICATION_TYPE = U
NORAD_CAT_ID   = 11574
ELEMENT_SET_NO = 999
REV_AT_EPOCH   = 42667
BSTAR          = .13391E-3
MEAN_MOTION_DOT = .416E-5
MEAN_MOTION_DDOT = 0

CCSDS_OMM_VERS = 2.0
CREATION_DATE  = 
ORIGINATOR     = 

OBJECT_NAME    = SL-14 R/B
OBJECT_ID      = 1980-005B
CENTER_NAME    = EARTH
REF_FRAME      = TEME
TIME_SYSTEM    = UTC
MEAN_ELEMENT_THEORY = SGP/SGP4

EPOCH          = 2026-01-03T11:46:41.683008
MEAN_MOTION    = 14.90825094
ECCENTRICITY   = .0016448
INCLINATION    = 82.5138
RA_OF_ASC_NODE = 9.0676
ARG_OF_PERICENTER = 26.2519
MEAN_ANOMALY   = 333.9529

EPHEMERIS_TYPE = 0
CLASSIFICATION_TYPE = U
NORAD_CAT_ID   = 11672
ELEMENT_SET_NO = 999
REV_AT_EPOCH   = 46677
BSTAR          = .1193E-3
MEAN_MOTION_DOT = .1202E-4
MEAN_MOTION_DDOT = 0

CCSDS_OMM_VERS = 2.0
CREATION_DATE  = 
ORIGINATOR     = 

OBJECT_NAME    = SL-8 R/B
OBJECT_ID      = 1981-003B
CENTER_NAME    = EARTH
REF_FRAME      = TEME
TIME_SYSTEM    = UTC
MEAN_ELEMENT_THEORY = SGP/SGP4

EPOCH          = 2026-01-03T10:40:05.492928
MEAN_MOTION    = 15.07903508
ECCENTRICITY   = .0275331
INCLINATION    = 82.9364
RA_OF_ASC_NODE = 350.2302
ARG_OF_PERICENTER = 45.8339
MEAN_ANOMALY   = 316.5163

EPHEMERIS_TYPE = 0
CLASSIFICATION_TYPE = U
NORAD_CAT_ID   = 12139
ELEMENT_SET_NO = 999
REV_AT_EPOCH   = 30483
BSTAR          = .9234E-3
MEAN_MOTION_DOT = .34982E-3
MEAN_MOTION_DDOT = 0

CCSDS_OMM_VERS = 2.0
CREATION_DATE  = 
ORIGINATOR     = 

OBJECT_NAME    = SL-3 R/B
OBJECT_ID      = 1981-046B
CENTER_NAME    = EARTH
REF_FRAME      = TEME
TIME_SYSTEM    = UTC
MEAN_ELEMENT_THEORY = SGP/SGP4

EPOCH          = 2026-01-03T11:07:24.646080
MEAN_MOTION    = 15.40153285
ECCENTRICITY   = .0017985
INCLINATION    = 81.2315
RA_OF_ASC_NODE = 7.9384
ARG_OF_PERICENTER = 243.7295
MEAN_ANOMALY   = 116.2099

EPHEMERIS_TYPE = 0
CLASSIFICATION_TYPE = U
NORAD_CAT_ID   = 12465
ELEMENT_SET_NO = 999
REV_AT_EPOCH   = 42838
BSTAR          = .4447E-3
MEAN_MOTION_DOT = .17976E-3
MEAN_MOTION_DDOT = 0

CCSDS_OMM_VERS = 2.0
CREATION_DATE  = 
ORIGINATOR     = 

OBJECT_NAME    = SL-3 R/B
OBJECT_ID      = 1981-103B
CENTER_NAME    = EARTH
REF_FRAME      = TEME
TIME_SYSTEM    = UTC
MEAN_ELEMENT_THEORY = SGP/SGP4

EPOCH          = 2026-01-03T10:40:05.716704
MEAN_MOTION    = 15.20547134
ECCENTRICITY   = .001357
INCLINATION    = 81.1610
RA_OF_ASC_NODE = 289.9305
ARG_OF_PERICENTER = 139.5804
MEAN_ANOMALY   = 220.6437

EPHEMERIS_TYPE = 0
CLASSIFICATION_TYPE = U
NORAD_CAT_ID   = 12904
ELEMENT_SET_NO = 999
REV_AT_EPOCH   = 96331
BSTAR          = .49062E-3
MEAN_MOTION_DOT = .1079E-3
MEAN_MOTION_DDOT = 0

CCSDS_OMM_VERS = 2.0
CREATION_DATE  = 
ORIGINATOR     = 

OBJECT_NAME    = SL-3 R/B
OBJECT_ID      = 1982-013B
CENTER_NAME    = EARTH
REF_FRAME      = TEME
TIME_SYSTEM    = UTC
MEAN_ELEMENT_THEORY = SGP/SGP4

EPOCH          = 2026-01-03T09:59:16.382976
MEAN_MOTION    = 15.21310377
ECCENTRICITY   = .0023704
INCLINATION    = 81.1733
RA_OF_ASC_NODE = 237.2346
ARG_OF_PERICENTER = 41.3755
MEAN_ANOMALY   = 318.9266

EPHEMERIS_TYPE = 0
CLASSIFICATION_TYPE = U
NORAD_CAT_ID   = 13068
ELEMENT_SET_NO = 999
REV_AT_EPOCH   = 39442
BSTAR          = .31078E-3
MEAN_MOTION_DOT = .7032E-4
MEAN_MOTION_DDOT = 0

CCSDS_OMM_VERS = 2.0
CREATION_DATE  = 
ORIGINATOR     = 

OBJECT_NAME    = SL-3 R/B
OBJECT_ID      = 1982-039B
CENTER_NAME    = EARTH
REF_FRAME      = TEME
TIME_SYSTEM    = UTC
MEAN_ELEMENT_THEORY = SGP/SGP4

EPOCH          = 2026-01-03T10:43:07.637952
MEAN_MOTION    = 15.09682155
ECCENTRICITY   = .0029605
INCLINATION    = 81.1705
RA_OF_ASC_NODE = 291.1210
ARG_OF_PERICENTER = 178.6446
MEAN_ANOMALY   = 181.4865

EPHEMERIS_TYPE = 0
CLASSIFICATION_TYPE = U
NORAD_CAT_ID   = 13154
ELEMENT_SET_NO = 999
REV_AT_EPOCH   = 37179
BSTAR          = .34664E-3
MEAN_MOTION_DOT = .5663E-4
MEAN_MOTION_DDOT = 0

